CENTISPACE-1 OBJECT A   
1 68350U 26060A   26088.21083205  .00000083  00000+0  43236-4 0  9993
2 68350  54.9829   1.9870 0012588 306.6365  53.3476 14.74875752   973
CENTISPACE-1 OBJECT B   
1 68351U 26060B   26088.21069150  .00000044  00000+0  37405-4 0  9995
2 68351  54.9811   1.9827 0012834 306.7495  53.2325 14.74917241   978
CENTISPACE-1 OBJECT C   
1 68352U 26060C   26087.87105975  .00000031  00000+0  35349-4 0  9994
2 68352  54.9833   3.3646 0012578 314.7166  45.2808 14.75106888   927
CENTISPACE-1 OBJECT D   
1 68353U 26060D   26087.05775003  .00000040  00000+0  36681-4 0  9990
2 68353  54.9867   6.6935 0012484 311.4708  48.5219 14.75149317   807
CENTISPACE-1 OBJECT E   
1 68354U 26060E   26088.20946189  .00000086  00000+0  43441-4 0  9996
2 68354  54.9778   1.9755 0013194 316.6442  43.3518 14.75191783   975
CENTISPACE-1 OBJECT F   
1 68355U 26060F   26088.20931646  .00000046  00000+0  37515-4 0  9990
2 68355  54.9778   1.9749 0013551 315.1910  44.7994 14.75229046   977
CENTISPACE-1 OBJECT G   
1 68356U 26060G   26087.93793949  .00000045  00000+0  37338-4 0  9994
2 68356  54.9926   3.0806 0014052 316.4035  43.5854 14.75313370   931
CENTISPACE-1 OBJECT H   
1 68357U 26060H   26084.61780387  .00000019  00000+0  33492-4 0  9997
2 68357  54.9848  16.6351 0014470 304.4277  55.5354 14.75425125   445
CENTISPACE-1 OBJECT J   
1 68358U 26060J   26084.61779005  .00000017  00000+0  33263-4 0  9997
2 68358  54.9877  16.6351 0013871 306.1411  53.8304 14.75435012   443
CENTISPACE-1 OBJECT K   
1 68359U 26060K   26087.86940483  .00000031  00000+0  35282-4 0  9997
2 68359  54.9801   3.3573 0014665 314.9648  45.0162 14.75497382   927
SUPERVIEW NEO-2 OBJECT A
1 68377U 26062A   26087.10259730  .00001488  00000+0  72014-4 0  9995
2 68377  97.4379  95.5549 0008168 263.6047  96.4258 15.20117201   330
SUPERVIEW NEO-2 OBJECT B
1 68378U 26062B   26086.04924529  .00003139  00000+0  14873-3 0  9996
2 68378  97.4356  94.5245 0010396 272.3840  87.6205 15.20012563   173
CZ-2D R/B               
1 68379U 26062C   26088.19842183  .00008586  00000+0  27660-3 0  9999
2 68379  97.4971  96.5082 0053552  50.3966 310.1985 15.31027778   504
SHIYAN-33               
1 68405U 26064A   26087.92644434  .00006503  00000+0  27404-3 0  9993
2 68405  97.4665 163.8675 0014909 225.4312 134.5709 15.23577189   276
2026-065A               
1 68408U 26065A   26087.94058999  .00001379  00000+0  70532-4 0  9991
2 68408  97.4112 330.1101 0015809 287.1112  72.8390 15.18211376    88
